MALLIGYONG-1            
1 58400U 23179A   24062.93165427  .00005206  00000+0  23600-3 0  9996
2 58400  97.4186 311.3652 0007789 276.3327  83.7021 15.21251991 15560
